NORAD_CAT_ID,OBJECT_NAME,OBJECT_TYPE,EPOCH,MEAN_MOTION,ECCENTRICITY,INCLINATION,RA_OF_ASC_NODE,ARG_OF_PERICENTER,MEAN_ANOMALY,BSTAR,MEAN_MOTION_DOT,MEAN_MOTION_DDOT,TLE_LINE0,TLE_LINE1,TLE_LINE2,SEMIMAJOR_AXIS,PERIOD,APOGEE,PERIGEE,DECAYED
55943.0,STARLINK-5932,PAYLOAD,2023-04-04 08:00:01,15.70375756,0.0004043,69.9951,131.6788,272.3584,228.5414,-0.0057786,-0.00655774,0.0,0 STARLINK-5932,1 55943U 23037AF  23094.33335648 -.00655774  00000-0 -57786-2 0  9995,2 55943  69.9951 131.6788 0004043 272.3584 228.5414 15.70375756  3288,6735.959,91.698,360.548,355.101,0.0
55943.0,STARLINK-5932,PAYLOAD,2023-04-04 14:00:01,15.69878907,0.0004175,69.9954,130.9753,274.1275,199.4619,0.00028732,0.00034418,0.0,0 STARLINK-5932,1 55943U 23037AF  23094.58334491  .00034418  00000-0  28732-3 0  9991,2 55943  69.9954 130.9753 0004175 274.1275 199.4619 15.69878907  3320,6737.38,91.727,362.058,356.433,0.0
55943.0,STARLINK-5932,PAYLOAD,2023-04-04 22:00:00,15.69857827,0.0004194,69.9957,130.0379,268.9862,287.9015,0.001089,0.00132473,0.0,0 STARLINK-5932,1 55943U 23037AF  23094.91667824  .00132473  00000-0  10890-2 0  9992,2 55943  69.9957 130.0379 0004194 268.9862 287.9015 15.69857827  1309,6737.441,91.728,362.131,356.48,0.0
55943.0,STARLINK-5932,PAYLOAD,2023-04-05 14:00:01,15.69961419,0.0003815,69.997,128.163,275.4415,88.1247,-0.00027782,-0.00033541,0.0,0 STARLINK-5932,1 55943U 23037AF  23095.58334491 -.00033541  00000-0 -27782-3 0  9994,2 55943  69.9970 128.1630 0003815 275.4415  88.1247 15.69961419  1309,6737.144,91.722,361.58,356.439,0.0
55943.0,STARLINK-5932,PAYLOAD,2023-04-05 16:00:00,15.69990272,0.00037,69.9973,127.9287,274.2973,200.1035,-0.00093533,-0.00111514,0.0,0 STARLINK-5932,1 55943U 23037AF  23095.66667824 -.00111514  00000-0 -93533-3 0  9996,2 55943  69.9973 127.9287 0003700 274.2973 200.1035 15.69990272  3498,6737.062,91.72,361.42,356.434,0.0
55943.0,STARLINK-5932,PAYLOAD,2023-04-05 22:00:00,15.69886445,0.0003659,69.9972,127.2258,269.2294,177.7161,0.00063116,0.00076257,0.0,0 STARLINK-5932,1 55943U 23037AF  23095.91667824  .00076257  00000-0  63116-3 0  9990,2 55943  69.9972 127.2258 0003659 269.2294 177.7161 15.69886445  1304,6737.359,91.726,361.689,356.759,0.0
55943.0,STARLINK-5932,PAYLOAD,2023-04-06 10:00:00,15.69891426,0.0003549,69.9985,125.8198,276.5881,115.3625,0.00040241,0.00048389,0.0,0 STARLINK-5932,1 55943U 23037AF  23096.41667824  .00048389  00000-0  40241-3 0  9995,2 55943  69.9985 125.8198 0003549 276.5881 115.3625 15.69891426  3610,6737.345,91.726,361.601,356.819,0.0
55943.0,STARLINK-5932,PAYLOAD,2023-04-06 14:00:01,15.69937248,0.0003634,69.9986,125.3509,276.3798,337.2797,-0.00016228,-0.00019692,0.0,0 STARLINK-5932,1 55943U 23037AF  23096.58335648 -.00019692  00000-0 -16228-3 0  9994,2 55943  69.9986 125.3509 0003634 276.3798 337.2797 15.69937248  1304,6737.214,91.723,361.527,356.63,0.0
55943.0,STARLINK-5932,PAYLOAD,2023-04-06 22:00:00,15.69900855,0.0003565,69.9991,124.4138,270.7548,66.2069,0.00028613,0.00034301,0.0,0 STARLINK-5932,1 55943U 23037AF  23096.91667824  .00034301  00000-0  28613-3 0  9998,2 55943  69.9991 124.4138 0003565 270.7548  66.2069 15.69900855  1307,6737.318,91.726,361.585,356.781,0.0
55943.0,STARLINK-5932,PAYLOAD,2023-04-07 08:00:01,15.69903735,0.0003526,69.9997,123.2424,275.5595,255.5673,0.00014875,0.00017696,0.0,0 STARLINK-5932,1 55943U 23037AF  23097.33334491  .00017696  00000-0  14875-3 0  9999,2 55943  69.9997 123.2424 0003526 275.5595 255.5673 15.69903735  3755,6737.309,91.725,361.55,356.799,0.0
55943.0,STARLINK-5932,PAYLOAD,2023-04-07 14:00:01,15.69972267,0.0003518,69.9996,122.5395,276.1227,227.4718,-0.00061231,-0.00073347,0.0,0 STARLINK-5932,1 55943U 23037AF  23097.58334491 -.00073347  00000-0 -61231-3 0  9991,2 55943  69.9996 122.5395 0003518 276.1227 227.4718 15.69972267  1306,6737.113,91.721,361.348,356.608,0.0
55943.0,STARLINK-5932,PAYLOAD,2023-04-08 04:40:57,15.69917277,0.0004255,69.9982,120.8205,283.1433,76.9288,6.3248e-06,5.47e-06,0.0,0 STARLINK-5932,1 55943U 23037AF  23098.19511187  .00000547  00000-0  63248-5 0  9990,2 55943  69.9982 120.8205 0004255 283.1433  76.9288 15.69917277  3893,6737.271,91.725,362.002,356.269,0.0
55943.0,STARLINK-5932,PAYLOAD,2023-04-08 10:47:57,15.69930703,0.0003868,69.9982,120.1038,276.6594,83.4162,6.0333e-05,7.05e-05,0.0,0 STARLINK-5932,1 55943U 23037AF  23098.44997582  .00007050  00000-0  60333-4 0  9992,2 55943  69.9982 120.1038 0003868 276.6594  83.4162 15.69930703  3932,6737.232,91.724,361.703,356.491,0.0
55943.0,STARLINK-5932,PAYLOAD,2023-04-08 18:26:43,15.6994716,0.0003319,69.9989,119.2073,266.4053,93.6763,0.0001845,0.00022051,0.0,0 STARLINK-5932,1 55943U 23037AF  23098.76855729  .00022051  00000-0  18450-3 0  9993,2 55943  69.9989 119.2073 0003319 266.4053  93.6763 15.69947160  3985,6737.185,91.723,361.286,356.814,0.0
55943.0,STARLINK-5932,PAYLOAD,2023-04-09 03:37:14,15.69936894,0.0003709,69.9995,118.1316,264.6247,95.4525,0.00014776,0.00017602,0.0,0 STARLINK-5932,1 55943U 23037AF  23099.15085931  .00017602  00000-0  14776-3 0  9990,2 55943  69.9995 118.1316 0003709 264.6247  95.4525 15.69936894  4044,6737.215,91.723,361.578,356.581,0.0
55943.0,STARLINK-5932,PAYLOAD,2023-04-09 11:15:59,15.69931833,0.0003764,70.0004,117.2365,263.43,96.6467,0.00015691,0.00018704,0.0,0 STARLINK-5932,1 55943U 23037AF  23099.46944254  .00018704  00000-0  15691-3 0  9997,2 55943  70.0004 117.2365 0003764 263.4300  96.6467 15.69931833  3753,6737.229,91.724,361.63,356.558,0.0
55943.0,STARLINK-5932,PAYLOAD,2023-04-09 12:47:44,15.69930699,0.0003705,70.0009,117.0575,261.8322,98.2454,0.00014656,0.00017452,0.0,0 STARLINK-5932,1 55943U 23037AF  23099.53315914  .00017452  00000-0  14656-3 0  9999,2 55943  70.0009 117.0575 0003705 261.8322  98.2454 15.69930699  4103,6737.232,91.724,361.593,356.601,0.0
55943.0,STARLINK-5932,PAYLOAD,2023-04-10 04:05:16,15.6993306,0.0003002,70.0022,115.2677,258.5581,101.5278,8.578e-05,0.00010117,0.0,0 STARLINK-5932,1 55943U 23037AF  23100.17032818  .00010117  00000-0  85780-4 0  9999,2 55943  70.0022 115.2677 0003002 258.5581 101.5278 15.69933060  4209,6737.226,91.724,361.113,357.068,0.0
55943.0,STARLINK-5932,PAYLOAD,2023-04-10 13:15:47,15.69929497,0.0003339,70.0005,114.1922,259.1385,100.9435,6.1076e-05,7.139e-05,0.0,0 STARLINK-5932,1 55943U 23037AF  23100.55262863  .00007139  00000-0  61076-4 0  9998,2 55943  70.0005 114.1922 0003339 259.1385 100.9435 15.69929497  3928,6737.236,91.724,361.35,356.851,0.0
55943.0,STARLINK-5932,PAYLOAD,2023-04-10 17:51:02,15.6993363,0.0003413,70.001,113.6549,259.3802,100.7009,6.0129e-05,7.026e-05,0.0,0 STARLINK-5932,1 55943U 23037AF  23100.74377701  .00007026  00000-0  60129-4 0  9990,2 55943  70.0010 113.6549 0003413 259.3802 100.7009 15.69933630  4292,6737.224,91.724,361.388,356.789,0.0
55943.0,STARLINK-5932,PAYLOAD,2023-04-11 12:12:05,15.69919511,0.0002578,70.0005,111.5056,266.3131,93.777,5.4991e-05,6.403e-05,0.0,0 STARLINK-5932,1 55943U 23037AF  23101.50839736  .00006403  00000-0  54991-4 0  9994,2 55943  70.0005 111.5056 0002578 266.3131  93.7770 15.69919511  4074,6737.264,91.724,360.866,357.392,0.0
55943.0,STARLINK-5932,PAYLOAD,2023-04-11 18:19:05,15.69940553,0.0003402,70.0017,110.7874,260.9194,99.1617,0.00010985,0.00013025,0.0,0 STARLINK-5932,1 55943U 23037AF  23101.76325503  .00013025  00000-0  10985-3 0  9996,2 55943  70.0017 110.7874 0003402 260.9194  99.1617 15.69940553  4454,6737.204,91.723,361.361,356.777,0.0
55943.0,STARLINK-5932,PAYLOAD,2023-04-12 03:29:35,15.69931434,0.0002625,70.0003,109.7145,247.2337,112.8582,5.1626e-05,6.001e-05,0.0,0 STARLINK-5932,1 55943U 23037AF  23102.14555477  .00006001  00000-0  51626-4 0  9998,2 55943  70.0003 109.7145 0002625 247.2337 112.8582 15.69931434  4510,6737.23,91.724,360.864,357.327,0.0
55943.0,STARLINK-5932,PAYLOAD,2023-04-12 09:36:36,15.69933332,0.0002901,70.0006,108.9971,268.2697,91.8166,5.3687e-05,6.25e-05,0.0,0 STARLINK-5932,1 55943U 23037AF  23102.40042166  .00006250  00000-0  53687-4 0  9998,2 55943  70.0006 108.9971 0002901 268.2697  91.8166 15.69933332  4210,6737.225,91.724,361.044,357.135,0.0
55943.0,STARLINK-5932,PAYLOAD,2023-04-13 10:04:38,15.69923035,0.0002254,70.0023,106.1328,287.8981,72.1969,-4.133e-05,-5.177e-05,0.0,0 STARLINK-5932,1 55943U 23037AF  23103.41988675 -.00005177  00000-0 -41330-4 0  9995,2 55943  70.0023 106.1328 0002254 287.8981  72.1969 15.69923035  4378,6737.254,91.724,360.638,357.601,0.0
55943.0,STARLINK-5932,PAYLOAD,2023-04-13 17:43:23,15.69930157,0.0002753,70.0007,105.2378,277.1226,82.9656,1.8188e-05,1.975e-05,0.0,0 STARLINK-5932,1 55943U 23037AF  23103.73846665  .00001975  00000-0  18188-4 0  9997,2 55943  70.0007 105.2378 0002753 277.1226  82.9656 15.69930157  4761,6737.234,91.724,360.954,357.244,0.0
55943.0,STARLINK-5932,PAYLOAD,2023-04-14 10:32:40,15.69892029,0.0002475,70.002,103.2676,277.8339,82.2576,-0.00010829,-0.00013193,0.0,0 STARLINK-5932,1 55943U 23037AF  23104.43936094 -.00013193  00000-0 -10829-3 0  9991,2 55943  70.0020 103.2676 0002475 277.8339  82.2576 15.69892029  4532,6737.343,91.726,360.875,357.54,0.0
55943.0,STARLINK-5932,PAYLOAD,2023-04-15 06:25:26,15.69953031,0.0001773,70.0037,100.938,263.3883,96.7111,0.00013003,0.00015467,0.0,0 STARLINK-5932,1 55943U 23037AF  23105.26766472  .00015467  00000-0  13003-3 0  9995,2 55943  70.0037 100.9380 0001773 263.3883  96.7111 15.69953031  5009,6737.168,91.722,360.228,357.839,0.0
55943.0,STARLINK-5932,PAYLOAD,2023-04-15 09:28:57,15.6990299,0.0002303,70.0022,100.5781,275.3062,84.7871,-7.2256e-05,-8.882e-05,0.0,0 STARLINK-5932,1 55943U 23037AF  23105.39511060 -.00008882  00000-0 -72256-4 0  9991,2 55943  70.0022 100.5781 0002303 275.3062  84.7871 15.69902990  5026,6737.312,91.725,360.728,357.625,0.0
55943.0,STARLINK-5932,PAYLOAD,2023-04-15 17:07:42,15.69927047,0.0003091,70.0013,99.6816,279.3718,80.7128,3.4932e-05,3.99e-05,0.0,0 STARLINK-5932,1 55943U 23037AF  23105.71368868  .00003990  00000-0  34932-4 0  9995,2 55943  70.0013  99.6816 0003091 279.3718  80.7128 15.69927047  5076,6737.243,91.724,361.19,357.025,0.0
